{"type": "FeatureCollection", "features": [ {"type": "Feature", "properties": {"norad_id": 37834, "name": "INTELSAT 18 (IS-18)", "group": "intelsat", "lat": 0.036466111289544016, "lon": 47.41467249618047, "alt_km": 35791.30792358553, "timestamp": "2025-12-14T09:36:22.702385+00:00", "meta": {"OBJECT_NAME": "INTELSAT 18 (IS-18)", "OBJECT_ID": "2011-056A", "EPOCH": "2025-12-13T13:21:31.838400", "MEAN_MOTION": 1.00272159, "ECCENTRICITY": 0.0001828, "INCLINATION": 0.0175, "RA_OF_ASC_NODE": 319.5455, "ARG_OF_PERICENTER": 313.7128, "MEAN_ANOMALY": 189.6056, "EPHEMERIS_TYPE": 0, "CLASSIFICATION_TYPE": "U", "NORAD_CAT_ID": 37834, "ELEMENT_SET_NO": 999, "REV_AT_EPOCH": 5195, "BSTAR": 0, "MEAN_MOTION_DOT": 6.8e-07, "MEAN_MOTION_DDOT": 0}, "tle": {"line1": "1 37834U 11056A   25347.55661850  .00000068  00000+0  00000+0 0  9997", "line2": "2 37834   0.0175 319.5455 0001828 313.7128 189.6056  1.00272159 51958"}}, "geometry": {"type": "Point", "coordinates": [47.41467249618047, 0.036466111289544016]}}, {"type": "Feature", "properties": {"norad_id": 38098, "name": "INTELSAT 22 (IS-22)", "group": "intelsat", "lat": -0.014142999619911603, "lon": -60.46785455887813, "alt_km": 35780.001247879096, "timestamp": "2025-12-14T09:36:22.702397+00:00", "meta": {"OBJECT_NAME": "INTELSAT 22 (IS-22)", "OBJECT_ID": "2012-011A", "EPOCH": "2025-12-13T15:30:16.452864", "MEAN_MOTION": 1.0027125, "ECCENTRICITY": 0.00017364, "INCLINATION": 0.0007, "RA_OF_ASC_NODE": 357.2619, "ARG_OF_PERICENTER": 270.1968, "MEAN_ANOMALY": 119.804, "EPHEMERIS_TYPE": 0, "CLASSIFICATION_TYPE": "U", "NORAD_CAT_ID": 38098, "ELEMENT_SET_NO": 999, "REV_AT_EPOCH": 532, "BSTAR": 0, "MEAN_MOTION_DOT": -4.3e-07, "MEAN_MOTION_DDOT": 0}, "tle": {"line1": "1 38098U 12011A   25347.64602376 -.00000043  00000+0  00000+0 0  9994", "line2": "2 38098   0.0007 357.2619 0001736 270.1968 119.8040  1.00271250  5321"}}, "geometry": {"type": "Point", "coordinates": [-60.46785455887813, -0.014142999619911603]}}, {"type": "Feature", "properties": {"norad_id": 38356, "name": "INTELSAT 19 (IS-19)", "group": "intelsat", "lat": 0.017104969281295224, "lon": 33.45302471887907, "alt_km": 35793.34862625476, "timestamp": "2025-12-14T09:36:22.702413+00:00", "meta": {"OBJECT_NAME": "INTELSAT 19 (IS-19)", "OBJECT_ID": "2012-030A", "EPOCH": "2025-12-13T14:14:23.719776", "MEAN_MOTION": 1.00272639, "ECCENTRICITY": 0.00033632, "INCLINATION": 0.0102, "RA_OF_ASC_NODE": 11.2403, "ARG_OF_PERICENTER": 260.4104, "MEAN_ANOMALY": 190.485, "EPHEMERIS_TYPE": 0, "CLASSIFICATION_TYPE": "U", "NORAD_CAT_ID": 38356, "ELEMENT_SET_NO": 999, "REV_AT_EPOCH": 4859, "BSTAR": 0, "MEAN_MOTION_DOT": -4.1e-07, "MEAN_MOTION_DDOT": 0}, "tle": {"line1": "1 38356U 12030A   25347.59333009 -.00000041  00000+0  00000+0 0  9998", "line2": "2 38356   0.0102  11.2403 0003363 260.4104 190.4850  1.00272639 48596"}}, "geometry": {"type": "Point", "coordinates": [33.45302471887907, 0.017104969281295224]}}, {"type": "Feature", "properties": {"norad_id": 38740, "name": "INTELSAT 20 (IS-20)", "group": "intelsat", "lat": -0.00284800200114832, "lon": -64.06093731229194, "alt_km": 35791.411276291146, "timestamp": "2025-12-14T09:36:22.702424+00:00", "meta": {"OBJECT_NAME": "INTELSAT 20 (IS-20)", "OBJECT_ID": "2012-043A", "EPOCH": "2025-12-13T15:29:16.549152", "MEAN_MOTION": 1.00270625, "ECCENTRICITY": 0.00031806, "INCLINATION": 0.0059, "RA_OF_ASC_NODE": 73.5076, "ARG_OF_PERICENTER": 110.142, "MEAN_ANOMALY": 199.7483, "EPHEMERIS_TYPE": 0, "CLASSIFICATION_TYPE": "U", "NORAD_CAT_ID": 38740, "ELEMENT_SET_NO": 999, "REV_AT_EPOCH": 4888, "BSTAR": 0, "MEAN_MOTION_DOT": -9e-08, "MEAN_MOTION_DDOT": 0}, "tle": {"line1": "1 38740U 12043A   25347.64533043 -.00000009  00000+0  00000+0 0  9999", "line2": "2 38740   0.0059  73.5076 0003180 110.1420 199.7483  1.00270625 48889"}}, "geometry": {"type": "Point", "coordinates": [-64.06093731229194, -0.00284800200114832]}}, {"type": "Feature", "properties": {"norad_id": 38749, "name": "INTELSAT 21 (IS-21)", "group": "intelsat", "lat": 0.01846067904572609, "lon": 169.38928719007433, "alt_km": 35786.18191848374, "timestamp": "2025-12-14T09:36:22.702436+00:00", "meta": {"OBJECT_NAME": "INTELSAT 21 (IS-21)", "OBJECT_ID": "2012-045A", "EPOCH": "2025-12-13T11:27:39.688416", "MEAN_MOTION": 1.00272152, "ECCENTRICITY": 0.00017689, "INCLINATION": 0.0288, "RA_OF_ASC_NODE": 72.7632, "ARG_OF_PERICENTER": 187.4215, "MEAN_ANOMALY": 296.1447, "EPHEMERIS_TYPE": 0, "CLASSIFICATION_TYPE": "U", "NORAD_CAT_ID": 38749, "ELEMENT_SET_NO": 999, "REV_AT_EPOCH": 4866, "BSTAR": 0, "MEAN_MOTION_DOT": -2.7e-06, "MEAN_MOTION_DDOT": 0}, "tle": {"line1": "1 38749U 12045A   25347.47754269 -.00000270  00000+0  00000+0 0  9996", "line2": "2 38749   0.0288  72.7632 0001768 187.4215 296.1447  1.00272152 48665"}}, "geometry": {"type": "Point", "coordinates": [169.38928719007433, 0.01846067904572609]}}, {"type": "Feature", "properties": {"norad_id": 38867, "name": "INTELSAT 23 (IS-23)", "group": "intelsat", "lat": 0.03409825796226529, "lon": 174.40499448615444, "alt_km": 35783.16504074032, "timestamp": "2025-12-14T09:36:22.702447+00:00", "meta": {"OBJECT_NAME": "INTELSAT 23 (IS-23)", "OBJECT_ID": "2012-057A", "EPOCH": "2025-12-12T20:04:33.254400", "MEAN_MOTION": 1.00272659, "ECCENTRICITY": 0.0001042, "INCLINATION": 0.0448, "RA_OF_ASC_NODE": 97.1317, "ARG_OF_PERICENTER": 126.8115, "MEAN_ANOMALY": 105.9792, "EPHEMERIS_TYPE": 0, "CLASSIFICATION_TYPE": "U", "NORAD_CAT_ID": 38867, "ELEMENT_SET_NO": 999, "REV_AT_EPOCH": 4808, "BSTAR": 0, "MEAN_MOTION_DOT": -2.72e-06, "MEAN_MOTION_DDOT": 0}, "tle": {"line1": "1 38867U 12057A   25346.83649600 -.00000272  00000+0  00000+0 0  9993", "line2": "2 38867   0.0448  97.1317 0001042 126.8115 105.9792  1.00272659 48084"}}, "geometry": {"type": "Point", "coordinates": [174.40499448615444, 0.03409825796226529]}}, {"type": "Feature", "properties": {"norad_id": 39360, "name": "FM-6", "group": "intelsat", "lat": 0.011597398288575374, "lon": 111.23426404322745, "alt_km": 35780.99307142588, "timestamp": "2025-12-14T09:36:22.702471+00:00", "meta": {"OBJECT_NAME": "FM-6", "OBJECT_ID": "2013-058A", "EPOCH": "2025-12-13T07:28:38.758944", "MEAN_MOTION": 1.00272466, "ECCENTRICITY": 0.00029225, "INCLINATION": 0.0096, "RA_OF_ASC_NODE": 62.5773, "ARG_OF_PERICENTER": 115.2361, "MEAN_ANOMALY": 260.4514, "EPHEMERIS_TYPE": 0, "CLASSIFICATION_TYPE": "U", "NORAD_CAT_ID": 39360, "ELEMENT_SET_NO": 999, "REV_AT_EPOCH": 4420, "BSTAR": 0, "MEAN_MOTION_DOT": -3e-08, "MEAN_MOTION_DDOT": 0}, "tle": {"line1": "1 39360U 13058A   25347.31155971 -.00000003  00000+0  00000+0 0  9993", "line2": "2 39360   0.0096  62.5773 0002922 115.2361 260.4514  1.00272466 44202"}}, "geometry": {"type": "Point", "coordinates": [111.23426404322745, 0.011597398288575374]}}, {"type": "Feature", "properties": {"norad_id": 40271, "name": "INTELSAT 30 (IS-30)", "group": "intelsat", "lat": 0.0261349727882769, "lon": 132.35960409969425, "alt_km": 35782.79556675917, "timestamp": "2025-12-14T09:36:22.702485+00:00", "meta": {"OBJECT_NAME": "INTELSAT 30 (IS-30)", "OBJECT_ID": "2014-062A", "EPOCH": "2025-12-12T08:55:38.613216", "MEAN_MOTION": 1.00272537, "ECCENTRICITY": 0.00012624, "INCLINATION": 0.0176, "RA_OF_ASC_NODE": 31.1392, "ARG_OF_PERICENTER": 47.2418, "MEAN_ANOMALY": 41.7881, "EPHEMERIS_TYPE": 0, "CLASSIFICATION_TYPE": "U", "NORAD_CAT_ID": 40271, "ELEMENT_SET_NO": 999, "REV_AT_EPOCH": 491, "BSTAR": 0, "MEAN_MOTION_DOT": -1.41e-06, "MEAN_MOTION_DDOT": 0}, "tle": {"line1": "1 40271U 14062A   25346.37197469 -.00000141  00000+0  00000+0 0  9998", "line2": "2 40271   0.0176  31.1392 0001262  47.2418  41.7881  1.00272537  4916"}}, "geometry": {"type": "Point", "coordinates": [132.35960409969425, 0.0261349727882769]}}, {"type": "Feature", "properties": {"norad_id": 40333, "name": "DIRECTV 14", "group": "intelsat", "lat": 0.015106307348276204, "lon": 128.1742482764969, "alt_km": 35785.52210473859, "timestamp": "2025-12-14T09:36:22.702497+00:00", "meta": {"OBJECT_NAME": "DIRECTV 14", "OBJECT_ID": "2014-078B", "EPOCH": "2025-12-13T14:41:21.139008", "MEAN_MOTION": 1.00270152, "ECCENTRICITY": 2.75e-05, "INCLINATION": 0.0197, "RA_OF_ASC_NODE": 329.2076, "ARG_OF_PERICENTER": 185.394, "MEAN_ANOMALY": 49.0546, "EPHEMERIS_TYPE": 0, "CLASSIFICATION_TYPE": "U", "NORAD_CAT_ID": 40333, "ELEMENT_SET_NO": 999, "REV_AT_EPOCH": 4018, "BSTAR": 0, "MEAN_MOTION_DOT": -1.1e-06, "MEAN_MOTION_DDOT": 0}, "tle": {"line1": "1 40333U 14078B   25347.61205022 -.00000110  00000+0  00000+0 0  9993", "line2": "2 40333   0.0197 329.2076 0000275 185.3940  49.0546  1.00270152 40184"}}, "geometry": {"type": "Point", "coordinates": [128.1742482764969, 0.015106307348276204]}}, {"type": "Feature", "properties": {"norad_id": 40663, "name": "DIRECTV 15", "group": "intelsat", "lat": 0.03181009142215503, "lon": 124.53575865392007, "alt_km": 35786.31025582964, "timestamp": "2025-12-14T09:36:22.702508+00:00", "meta": {"OBJECT_NAME": "DIRECTV 15", "OBJECT_ID": "2015-026A", "EPOCH": "2025-12-13T14:40:21.235296", "MEAN_MOTION": 1.002702, "ECCENTRICITY": 2.56e-05, "INCLINATION": 0.0386, "RA_OF_ASC_NODE": 85.362, "ARG_OF_PERICENTER": 117.0868, "MEAN_ANOMALY": 357.3198, "EPHEMERIS_TYPE": 0, "CLASSIFICATION_TYPE": "U", "NORAD_CAT_ID": 40663, "ELEMENT_SET_NO": 999, "REV_AT_EPOCH": 3860, "BSTAR": 0, "MEAN_MOTION_DOT": -8.7e-07, "MEAN_MOTION_DDOT": 0}, "tle": {"line1": "1 40663U 15026A   25347.61135689 -.00000087  00000+0  00000+0 0  9997", "line2": "2 40663   0.0386  85.3620 0000256 117.0868 357.3198  1.00270200 38601"}}, "geometry": {"type": "Point", "coordinates": [124.53575865392007, 0.03181009142215503]}}]}